#cP2023  5 13  0  0  0.00000000      96 ORBIT IGS20 HLM  IGS
## 2261 518400.00000000   900.00000000 60077 0.0000000000000
+   32   G01G02G03G04G05G06G07G08G09G10G11G12G13G14G15G16G17
+        G18G19G20G21G22G23G24G25G26G27G28G29G30G31G32  0  0
+          0  0  0  0  0  0  0  0  0  0  0  0  0  0  0  0  0
+          0  0  0  0  0  0  0  0  0  0  0  0  0  0  0  0  0
+          0  0  0  0  0  0  0  0  0  0  0  0  0  0  0  0  0
++         2  2  2  2  2  2  2  2  2  2  2  2  2  3  2  2  2
++         2  2  2  2  3  2  2  2  2  2  2  2  2  2  2  0  0
++         0  0  0  0  0  0  0  0  0  0  0  0  0  0  0  0  0
++         0  0  0  0  0  0  0  0  0  0  0  0  0  0  0  0  0
++         0  0  0  0  0  0  0  0  0  0  0  0  0  0  0  0  0
%c G  cc GPS ccc cccc cccc cccc cccc ccccc ccccc ccccc ccccc
%c cc cc ccc ccc cccc cccc cccc cccc ccccc ccccc ccccc ccccc
%f  1.2500000  1.025000000  0.00000000000  0.000000000000000
%f  0.0000000  0.000000000  0.00000000000  0.000000000000000
%i    0    0    0    0      0      0      0      0         0
%i    0    0    0    0      0      0      0      0         0
/* RAPID ORBIT COMBINATION FROM WEIGHTED AVERAGE OF:        
/* cod emr esa gfz grg jpl ngs sio usn whu                  
/* REFERENCED TO IGS TIME (IGST) AND TO WEIGHTED MEAN POLE: 
/* PCV:IGS20_2233 OL/AL:FES2014b NONE     Y  ORB:CMB CLK:CMB
*  2023  5 13  2 15  0.00000000
PG01 -14030.322795  20607.472683   8290.302109    185.776459  4  5  5 126       
PG02 -12212.700068 -11091.973042  21476.587777   -596.792802  6  6  6  58       
PG03 -18442.800454  12752.917699 -14271.323564   -304.938145  6  5  5 130       
PG04  -7829.738782  14001.251952 -21136.645518     40.007070  4  6  7  96       
PG05  26189.647952  -4673.733308  -1254.891712   -126.976904  7  6  7  93       
PG06   8159.248303  15338.057187 -19999.081414    588.085421  7  5  6  91       
PG07  -5070.603075  25226.024924   5895.160551    179.623767  5  6  6 123       
PG08 -16736.247182   2637.687323  20475.714153   -122.138793  4  7  4 118       
PG09   2357.829317  20687.621408 -16534.720851   -160.110646  4  6  5  88       
PG10 -12165.541418 -12009.174085  20588.780373    -36.685854  5  5  5  73       
PG11  15871.585196    440.983564 -21279.741562   -194.818702  7  5  8  73       
PG12  21143.332086 -10546.828202 -12323.675551   -375.326855  9  8  6  69       
PG13  18359.794850   6263.885912  18057.896075    519.130540  5  3  4  34       
PG14   8680.129020  13952.510374  20903.665594     54.966949  7  4  6  94       
PG15  16224.446365  -5229.591576  19970.867445     39.017429  4  4  4  89       
PG16 -26507.330971   -901.896319  -4187.750745   -501.501420  6  7  6  94       
PG17  12784.921305  22866.720074   4437.858020    714.570462  6  3  6 104       
PG18   3504.432602 -24768.765978   8692.574679   -263.886094  8  5  6  84       
PG19  17219.296056  19821.862062  -5182.155335    316.123717  6  5  5 100       
PG20  24337.333158   -516.659747 -10355.291394    433.893764  6  5  6  69       
PG21 -15865.872000  13192.031322  16769.847224    153.849690  7  5  6 125       
PG22 -18323.653966 -17786.543592  -7143.935485    480.340678  9  8  8 107       
PG23   1510.503308 -15289.881522  21652.486729     23.747236  5  4  2  81       
PG24  14499.373200 -18011.595706  12331.370597   -186.609667  4  5  5  67       
PG25  10198.786889 -15605.259097 -19132.622996    442.405316  7  7  6  85       
PG26 -21094.133106  -6515.040155 -15122.228249    240.861542  6  7  4 111       
PG27 -20390.617978  -8962.365778  14525.168874     38.720243  4  6  5 118       
PG28  -8039.349604 -17056.520439 -18731.038309     76.991148  4  4  3  70       
PG29   1915.977566 -19015.004638 -18463.601525   -599.203165  5  5  7  91       
PG30   3388.253347  21673.426794  14896.022478   -517.508925     3  5 104       
PG31 -13904.189183  -6742.095982 -21768.254836   -215.991135  6  5  5  96       
PG32 -16009.931876 -21258.636196   1920.542528   -475.095896  8  5  5  70       
*  2023  5 13  2 30  0.00000000
PG01 -13816.179021  19461.840692  10929.557784    185.773937  4  5  4 123       
PG02 -11602.417948 -13285.913362  20545.597665   -596.789592  5  6  6  54       
PG03 -19929.039519  12876.377590 -11941.507961   -304.928229  6  5  5 129       
PG04  -9419.569020  12134.462726 -21645.761114     40.015814  4  6  7  98       
PG05  25967.101342  -4382.991151  -4092.554067   -126.977956  7  7  7  86       
PG06   7341.893293  17399.025655 -18574.306575    588.085186  7  5  6  94       
PG07  -5518.307239  25571.269831   3094.115218    179.615456  5  7  5 102       
PG08 -18223.956733    902.280920  19363.382097   -122.141624  4  7  4 111       
PG09    900.452837  19337.591702 -18235.986441   -160.103099  4  6  5  92       
PG10  -9862.359964 -12520.543691  21477.234192    -36.687366  4  5  4  83       
PG11  14999.818414   2743.558782 -21737.978682   -194.831061  7  5  7  97       
PG12  22392.517076 -10496.698216  -9848.578000   -375.331082  9  9  6  71       
PG13  19338.836283   7999.070840  16299.483413    519.135412  5  3  4  33       
PG14   6298.906410  14398.076276  21434.768078     54.978482  6  4  6  90       
PG15  17899.593716  -3622.868996  18915.321915     39.020480  5  4  3  95       
PG16 -25938.997532  -1161.499142  -6933.666840   -501.498530  5  8  6 103       
PG17  12239.211104  22506.657380   7223.206902    714.571894  6  3  6 103       
PG18   3993.563267 -25486.774947   5968.645939   -263.900378  8  6  6  98       
PG19  17293.669748  20261.350750  -2361.702226    316.128187  6  5  5 102       
PG20  23181.521925    200.794252 -12751.964414    433.892002  6  6  6  74       
PG21 -15575.194642  11253.646872  18501.036061    153.849727  7  5  5 116       
PG22 -18555.018251 -18498.124741  -4397.135569    480.346627  9  8  8 104       
PG23   3898.623555 -15779.365070  20979.378747     23.750031  5  3  3  87       
PG24  14400.409740 -16378.336483  14511.585753   -186.622262  4  5  4  70       
PG25  12241.207616 -15880.353500 -17599.397905    442.407806  7  7  5  90       
PG26 -19396.529639  -7177.609158 -16964.615991    240.861029  6  7  5 121       
PG27 -21295.358330 -10239.069372  12282.783086     38.712967  4  5  5 113       
PG28  -7312.886424 -18974.763984 -17112.307028     76.994369  5  4  3  77       
PG29   3310.430908 -17333.511538 -19879.198419   -599.204457  5  5  6 105       
PG30   2618.636602  23078.672085  12747.228334   -517.506968     4  4 111       
PG31 -13024.347211  -9018.632553 -21444.757419   -215.991702  6  5  5  99       
PG32 -15591.895332 -21151.237673   4728.381187   -475.104248  7  5  5  88       
*  2023  5 13  2 45  0.00000000
PG01 -13584.732279  18023.336415  13373.983581    185.771385  4  6  5 123       
PG02 -11136.003224 -15391.750230  19280.946964   -596.786124  5  6  6  79       
PG03 -21140.742518  13010.739075  -9406.241226   -304.918307  6  5  5 127       
PG04 -11128.799238  10327.236358 -21781.690463     40.024563  4  6  8  93       
PG05  25458.357902  -3988.263355  -6860.504501   -126.979566  7  7  7  84       
PG06   6690.913260  19329.144591 -16827.308747    588.084959  6  5  6  92       
PG07  -5865.881777  25627.127858    238.535519    179.607175  5  7  5 108       
PG08 -19693.816775   -650.355080  17919.545349   -122.143499  5  7  4 105       
PG09   -748.888424  17943.078718 -19624.682232   -160.095586  4  5  5  77       
PG10  -7512.184507 -13180.341092  22003.723039    -36.689321  5  5  4  79       
PG11  14241.337828   5117.783715 -21821.877468   -194.843453  7  5  7  99       
PG12  23360.576798 -10457.792320  -7205.131955   -375.335252  8  8  6  71       
PG13  20279.560264   9504.167919  14259.487401    519.140332  5  4  3  68       
PG14   3903.507841  14971.989960  21597.817771     54.990008  6  5  6 101       
PG15  19534.006279  -2184.876378  17524.264580     39.023521  5  4  3  84       
PG16 -25090.050994  -1499.939426  -9564.393113   -501.495244  4  8  6 103       
PG17  11475.949178  21944.135311   9885.081363    714.572822  6  3  6 101       
PG18   4354.292997 -25927.054551   3141.048230   -263.914671  9  7  6  91       
PG19  17191.616606  20447.741942    498.554183    316.132815  6  4  5 100       
PG20  21826.347740   1080.648205 -14926.639476    433.890270  5  6  6  67       
PG21 -15353.023111   9138.468437  19917.954637    153.849333  6  5  5 110       
PG22 -18623.218977 -18951.098980  -1574.664765    480.352341  9  8  8  97       
PG23   6165.177573 -16370.161316  19944.423060     23.752792  4  3  4  94       
PG24  14334.884958 -14510.606818  16431.516626   -186.634827  4  4  4  65       
PG25  14088.440060 -16209.437056 -15767.352668    442.410283  7  6  5  90       
PG26 -17551.684798  -7982.807594 -18521.199202    240.860533  6  6  5 111       
PG27 -22079.591211 -11273.815089   9830.651398     38.705706  5  5  5 117       
PG28  -6733.834282 -20734.143258 -15199.663197     76.997657  4  5  3  82       
PG29   4885.118410 -15623.823815 -20953.560375   -599.205756  5  5  6  92       
PG30   1985.812490  24274.753272  10377.444766   -517.505092     5  4 114       
PG31 -12277.442127 -11287.243283 -20756.457683   -215.992617  5  5  5  88       
PG32 -14949.260124 -20845.705600   7456.111567   -475.112617  7  5  4  92       
EOF
